%
(1001)
(T1 D=6. CR=0. - ZMIN=-1. - FLAT END MILL)
G90 G94 G17 G91.1
G21
(-ATTENTION- PROPERTY SAFE RETRACTS IS SET TO CLEARANCE HEIGHT.)
(ENSURE THE CLEARANCE HEIGHT WILL CLEAR THE PART AND OR FIXTURES.)
(RAISE THE Z-AXIS TO A SAFE HEIGHT BEFORE STARTING THE PROGRAM.)
(WHEN USING FUSION FOR PERSONAL USE, THE FEEDRATE OF RAPID)
(MOVES IS REDUCED TO MATCH THE FEEDRATE OF CUTTING MOVES,)
(WHICH CAN INCREASE MACHINING TIME. UNRESTRICTED RAPID MOVES)
(ARE AVAILABLE WITH A FUSION SUBSCRIPTION.)
(FACE1)
T1 M6
S5000 M3
G17 G90 G94
G54
G64 P0.01 Q0.01
M8
G0 X303.9 Y-198.791
G43 Z15. H1
G1 Z5. F1000.
Z-0.4 F333.33
G18 G3 X303.3 Z-1. I-0.6 K0. F1000.
G1 X303.01
X-303.01
G17 G2 Y-194.623 I0. J2.084
G1 X303.01
G3 Y-190.456 I0. J2.084
G1 X-303.01
G2 Y-186.289 I0. J2.084
G1 X303.01
G3 Y-182.121 I0. J2.084
G1 X-303.01
G2 Y-177.954 I0. J2.084
G1 X303.01
G3 Y-173.787 I0. J2.084
G1 X-303.01
G2 Y-169.619 I0. J2.084
G1 X303.01
G3 Y-165.452 I0. J2.084
G1 X-303.01
G2 Y-161.284 I0. J2.084
G1 X303.01
G3 Y-157.117 I0. J2.084
G1 X-303.01
G2 Y-152.95 I0. J2.084
G1 X303.01
G3 Y-148.782 I0. J2.084
G1 X-303.01
G2 Y-144.615 I0. J2.084
G1 X303.01
G3 Y-140.448 I0. J2.084
G1 X-303.01
G2 Y-136.28 I0. J2.084
G1 X303.01
G3 Y-132.113 I0. J2.084
G1 X-303.01
G2 Y-127.946 I0. J2.084
G1 X303.01
G3 Y-123.778 I0. J2.084
G1 X-303.01
G2 Y-119.611 I0. J2.084
G1 X303.01
G3 Y-115.444 I0. J2.084
G1 X-303.01
G2 Y-111.276 I0. J2.084
G1 X303.01
G3 Y-107.109 I0. J2.084
G1 X-303.01
G2 Y-102.941 I0. J2.084
G1 X303.01
G3 Y-98.774 I0. J2.084
G1 X-303.01
G2 Y-94.607 I0. J2.084
G1 X303.01
G3 Y-90.439 I0. J2.084
G1 X-303.01
G2 Y-86.272 I0. J2.084
G1 X303.01
G3 Y-82.105 I0. J2.084
G1 X-303.01
G2 Y-77.937 I0. J2.084
G1 X303.01
G3 Y-73.77 I0. J2.084
G1 X-303.01
G2 Y-69.603 I0. J2.084
G1 X303.01
G3 Y-65.435 I0. J2.084
G1 X-303.01
G2 Y-61.268 I0. J2.084
G1 X303.01
G3 Y-57.101 I0. J2.084
G1 X-303.01
G2 Y-52.933 I0. J2.084
G1 X303.01
G3 Y-48.766 I0. J2.084
G1 X-303.01
G2 Y-44.599 I0. J2.084
G1 X303.01
G3 Y-40.431 I0. J2.084
G1 X-303.01
G2 Y-36.264 I0. J2.084
G1 X303.01
G3 Y-32.096 I0. J2.084
G1 X-303.01
G2 Y-27.929 I0. J2.084
G1 X303.01
G3 Y-23.762 I0. J2.084
G1 X-303.01
G2 Y-19.594 I0. J2.084
G1 X303.01
G3 Y-15.427 I0. J2.084
G1 X-303.01
G2 Y-11.26 I0. J2.084
G1 X303.01
G3 Y-7.092 I0. J2.084
G1 X-303.01
G2 Y-2.925 I0. J2.084
G1 X303.01
G3 Y1.242 I0. J2.084
G1 X-303.01
G2 Y5.41 I0. J2.084
G1 X303.01
G3 Y9.577 I0. J2.084
G1 X-303.01
G2 Y13.744 I0. J2.084
G1 X303.01
G3 Y17.912 I0. J2.084
G1 X-303.01
G2 Y22.079 I0. J2.084
G1 X303.01
G3 Y26.246 I0. J2.084
G1 X-303.01
G2 Y30.414 I0. J2.084
G1 X303.01
G3 Y34.581 I0. J2.084
G1 X-303.01
G2 Y38.749 I0. J2.084
G1 X303.01
G3 Y42.916 I0. J2.084
G1 X-303.01
G2 Y47.083 I0. J2.084
G1 X303.01
G3 Y51.251 I0. J2.084
G1 X-303.01
G2 Y55.418 I0. J2.084
G1 X303.01
G3 Y59.585 I0. J2.084
G1 X-303.01
G2 Y63.753 I0. J2.084
G1 X303.01
G3 Y67.92 I0. J2.084
G1 X-303.01
G2 Y72.087 I0. J2.084
G1 X303.01
G3 Y76.255 I0. J2.084
G1 X-303.01
G2 Y80.422 I0. J2.084
G1 X303.01
G3 Y84.589 I0. J2.084
G1 X-303.01
G2 Y88.757 I0. J2.084
G1 X303.01
G3 Y92.924 I0. J2.084
G1 X-303.01
G2 Y97.091 I0. J2.084
G1 X303.01
G3 Y101.259 I0. J2.084
G1 X-303.01
G2 Y105.426 I0. J2.084
G1 X303.01
G3 Y109.594 I0. J2.084
G1 X-303.01
G2 Y113.761 I0. J2.084
G1 X303.01
G3 Y117.928 I0. J2.084
G1 X-303.01
G2 Y122.096 I0. J2.084
G1 X303.01
G3 Y126.263 I0. J2.084
G1 X-303.01
G2 Y130.43 I0. J2.084
G1 X303.01
G3 Y134.598 I0. J2.084
G1 X-303.01
G2 Y138.765 I0. J2.084
G1 X303.01
G3 Y142.932 I0. J2.084
G1 X-303.01
G2 Y147.1 I0. J2.084
G1 X303.01
G3 Y151.267 I0. J2.084
G1 X-303.01
G2 Y155.434 I0. J2.084
G1 X303.01
G3 Y159.602 I0. J2.084
G1 X-303.01
G2 Y163.769 I0. J2.084
G1 X303.01
G3 Y167.937 I0. J2.084
G1 X-303.01
G2 Y172.104 I0. J2.084
G1 X303.01
G3 Y176.271 I0. J2.084
G1 X-303.01
G2 Y180.439 I0. J2.084
G1 X303.01
G3 Y184.606 I0. J2.084
G1 X-303.01
G2 Y188.773 I0. J2.084
G1 X303.01
G3 Y192.941 I0. J2.084
G1 X-303.01
G2 Y197.108 I0. J2.084
G1 X303.01
G18 G2 X303.61 Z-0.4 I0. K0.6
G1 Z15.
G17
M9
M5
M30
%
